KUIPER-00071            
1 64818U 25151C   25291.16805139  .00008227  00000+0  11059-2 0  9999
2 64818  51.8997 213.3016 0008424 111.2764 248.9098 14.79954429 14160
KUIPER-00072            
1 64819U 25151D   25291.16668980 -.00965356  00000+0 -55690-1 0  9996
2 64819  51.8848 196.4222 0004468 116.8776 139.8662 15.14772126  3901
KUIPER-00073            
1 64820U 25151E   25291.06674771  .00008711  00000+0  11678-2 0  9992
2 64820  51.8996 213.7492 0013808 138.1844 222.0175 14.79967797 15334
KUIPER-00074            
1 64821U 25151F   25291.16668980 -.00155062  00000+0 -17186-1 0  9992
2 64821  51.9202 201.0432 0012864 149.4414 211.5348 14.87683530  5231
KUIPER-00075            
1 64822U 25151G   25291.15237591  .00051017  00000+0  12987-2 0  9990
2 64822  51.8760 193.8988 0006188 112.3911 247.7733 15.39057866 14433
KUIPER-00076            
1 64823U 25151H   25291.16668980 -.00997287  00000+0 -13346+0 0  9999
2 64823  51.9166 203.3246 0005053 147.3520 321.4205 14.82251298  4775
KUIPER-00077            
1 64824U 25151J   25291.07210895  .00000445  00000+0  87497-4 0  9990
2 64824  51.9044 208.7294 0006925  98.7669 261.4078 14.79961245 14223
KUIPER-00078            
1 64825U 25151K   25291.17619073  .00021900  00000+0  28846-2 0  9993
2 64825  51.8998 205.7743 0008013 169.4300 190.6833 14.80028123 14273
